OBJECT_NAME,OBJECT_ID,EPOCH,MEAN_MOTION,ECCENTRICITY,INCLINATION,RA_OF_ASC_NODE,ARG_OF_PERICENTER,MEAN_ANOMALY,EPHEMERIS_TYPE,CLASSIFICATION_TYPE,NORAD_CAT_ID,ELEMENT_SET_NO,REV_AT_EPOCH,BSTAR,MEAN_MOTION_DOT,MEAN_MOTION_DDOT
SAPPHIRE,2013-009C,2026-06-20T10:31:23.026080,14.35241298,.0010178,98.4263,350.8170,235.9238,124.0983,0,U,39088,999,69704,.392E-4,.69E-6,0
PRAETORIAN SDA_602,2025-203A,2026-06-20T06:38:16.107648,13.84277876,.0005957,81.3029,7.9069,177.1718,182.9474,0,U,65565,999,3912,.45004E-4,.62E-6,0
PRAETORIAN SDA_603,2025-203B,2026-06-20T07:17:55.124736,13.83904580,.0009556,81.3037,7.7998,178.7312,181.3871,0,U,65566,999,3913,.23691E-3,.275E-5,0
PRAETORIAN SDA_604,2025-203C,2026-06-19T23:08:13.031808,13.83047734,.00054193,81.3052,8.5312,183.6347,176.4770,0,U,65567,999,3906,.3125793E-4,.46E-6,0
PRAETORIAN SDA_605,2025-203D,2026-06-20T06:57:54.543168,13.83434437,.000825,81.3018,7.8898,174.5092,185.6157,0,U,65568,999,3912,.27955E-4,.43E-6,0
PRAETORIAN SDA_606,2025-203E,2026-06-17T07:22:48.694656,13.83407378,.00057443,81.3055,10.8712,180.4388,179.6764,0,U,65569,999,3870,.3743896E-4,.53E-6,0
PRAETORIAN SDA_607,2025-203F,2026-06-20T06:41:37.149216,13.84284906,.0008896,81.3036,7.7808,178.9840,181.1336,0,U,65570,999,3913,.9719E-4,.12E-5,0
PRAETORIAN SDA_608,2025-203G,2026-06-20T11:22:55.435008,13.83817196,.000594,81.3006,7.7639,181.5836,178.5303,0,U,65571,999,3914,.35115E-4,.51E-6,0
PRAETORIAN SDA_609,2025-203H,2026-06-19T23:20:02.215968,13.84210630,.00068812,81.3047,8.2110,177.4428,182.6765,0,U,65572,999,3908,-.50797814E-4,-.45E-6,0
PRAETORIAN SDA_610,2025-203J,2026-06-20T07:25:39.993888,13.83767709,.0006766,81.2999,7.8745,182.2174,177.8954,0,U,65573,999,3912,.38212E-4,.54E-6,0
PRAETORIAN SDA_611,2025-203K,2026-06-20T07:28:18.671808,13.83309355,.0005502,81.3015,8.0406,185.6554,174.4541,0,U,65574,999,3911,.8606E-4,.106E-5,0
PRAETORIAN SDA_612,2025-203L,2026-06-20T07:07:44.580000,13.85039458,.0009209,81.3031,7.6333,178.0136,182.1060,0,U,65575,999,3914,.11763E-3,.145E-5,0
PRAETORIAN SDA_613,2025-203M,2026-06-19T22:58:48.885600,13.82765296,.00057199,81.2998,8.3673,176.1966,183.9234,0,U,65576,999,3906,.30651879E-4,.45E-6,0
PRAETORIAN SDA_614,2025-203N,2026-06-20T06:53:00.040128,13.84777598,.0007187,81.3014,7.7208,175.0044,185.1186,0,U,65577,999,3914,.61872E-4,.82E-6,0
PRAETORIAN SDA_615,2025-203P,2026-06-20T11:33:01.772064,13.84436424,.0009079,81.3023,7.5066,176.2694,183.8532,0,U,65578,999,3916,.54653E-4,.73E-6,0
PRAETORIAN SDA_616,2025-203Q,2026-06-19T22:46:31.393344,13.83268264,.00054298,81.3060,8.5231,184.4895,175.6214,0,U,65579,999,3906,.16596858E-3,.194E-5,0
PRAETORIAN SDA_617,2025-203R,2026-06-20T11:27:08.453088,13.83150161,.0007451,81.3036,7.8658,175.0795,185.0435,0,U,65580,999,3914,.90612E-5,.22E-6,0
PRAETORIAN SDA_618,2025-203S,2026-06-19T22:34:58.485216,13.84669976,.00096343,81.3020,7.9356,180.2746,179.8408,0,U,65581,999,3909,.14921113E-3,.18E-5,0
PRAETORIAN SDA_619,2025-203T,2026-06-19T23:29:12.754176,13.83806323,.00081531,81.3048,8.2022,177.5525,182.5673,0,U,65582,999,3971,.79599933E-4,.1E-5,0
PRAETORIAN SDA_620,2025-203U,2026-06-20T07:06:35.265600,13.83617991,.0007932,81.3024,7.9286,172.6670,187.4604,0,U,65583,999,3912,.10119E-3,.124E-5,0
PRAETORIAN SDA_621,2025-203V,2026-06-20T06:28:14.926080,13.83801503,.0007532,81.3020,7.8711,170.2935,189.8368,0,U,65584,999,3912,.2791E-4,.43E-6,0
PRAETORIAN SDA_601,2025-203W,2026-06-19T22:51:19.555488,13.83168348,.00055071,81.3041,8.4633,187.7583,172.3489,0,U,65585,999,3906,.44902903E-3,.504E-5,0
